1 44909U 19096E   20229.48152830 +.00000015 +00000-0 +77443-5 0  9993
2 44909 082.5236 315.4307 0218485 086.2395 276.3657 12.79707614029863